NORAD_CAT_ID,OBJECT_NAME,OBJECT_TYPE,EPOCH,MEAN_MOTION,ECCENTRICITY,INCLINATION,RA_OF_ASC_NODE,ARG_OF_PERICENTER,MEAN_ANOMALY,BSTAR,MEAN_MOTION_DOT,MEAN_MOTION_DDOT,TLE_LINE0,TLE_LINE1,TLE_LINE2,SEMIMAJOR_AXIS,PERIOD,APOGEE,PERIGEE,DECAYED
54013.0,STARLINK-5098,PAYLOAD,2023-09-05 07:48:12,15.08837411,0.000134,53.2178,357.7946,94.3625,265.752,-1.2579e-05,-4.88e-06,0.0,0 STARLINK-5098,1 54013U 22125BB  23248.32514998 -.00000488  00000-0 -12579-4 0  9995,2 54013  53.2178 357.7946 0001340  94.3625 265.7520 15.08837411 51314,6917.888,95.438,540.68,538.826,0.0
54013.0,STARLINK-5098,PAYLOAD,2023-09-06 07:38:59,15.08835324,0.0001358,53.2181,353.335,97.9337,262.1809,0.00020846,3.031e-05,0.0,0 STARLINK-5098,1 54013U 22125BB  23249.31874696  .00003031  00000-0  20846-3 0  9999,2 54013  53.2181 353.3350 0001358  97.9337 262.1809 15.08835324 51410,6917.895,95.438,540.699,538.82,0.0
54013.0,STARLINK-5098,PAYLOAD,2023-09-06 17:11:17,15.08845607,0.0002046,53.2176,351.5504,109.8308,250.2905,0.00021156,3.081e-05,0.0,0 STARLINK-5098,1 54013U 22125BB  23249.71617999  .00003081  00000-0  21156-3 0  9994,2 54013  53.2176 351.5504 0002046 109.8308 250.2905 15.08845607 51523,6917.863,95.437,541.144,538.313,0.0
54013.0,STARLINK-5098,PAYLOAD,2023-09-06 23:32:52,15.08833472,0.0003304,53.2182,350.361,79.0027,281.1337,9.7852e-05,1.269e-05,0.0,0 STARLINK-5098,1 54013U 22125BB  23249.98115844  .00001269  00000-0  97852-4 0  9998,2 54013  53.2182 350.3610 0003304  79.0027 281.1337 15.08833472 51562,6917.9,95.438,542.051,537.48,0.0
54013.0,STARLINK-5098,PAYLOAD,2023-09-07 05:54:23,15.08844325,0.0002335,53.2174,349.1705,79.4789,280.6467,1.9172e-05,1.7e-07,0.0,0 STARLINK-5098,1 54013U 22125BB  23250.24611056  .00000017  00000-0  19172-4 0  9994,2 54013  53.2174 349.1705 0002335  79.4789 280.6467 15.08844325 51608,6917.867,95.437,541.347,538.117,0.0
54013.0,STARLINK-5098,PAYLOAD,2023-09-07 17:02:06,15.08829856,0.0001467,53.2198,347.0936,90.0716,270.0444,-6.2681e-05,-1.285e-05,0.0,0 STARLINK-5098,1 54013U 22125BB  23250.70980098 -.00001285  00000-0 -62681-4 0  9993,2 54013  53.2198 347.0936 0001467  90.0716 270.0444 15.08829856 51678,6917.911,95.438,540.791,538.762,0.0
54013.0,STARLINK-5098,PAYLOAD,2023-09-08 10:31:20,15.08848002,9.33e-05,53.2165,343.8202,65.1115,294.9974,-1.1591e-05,-4.72e-06,0.0,0 STARLINK-5098,1 54013U 22125BB  23251.43842988 -.00000472  00000-0 -11591-4 0  9990,2 54013  53.2165 343.8202 0000933  65.1115 294.9974 15.08848002 51784,6917.856,95.437,540.366,539.075,0.0
54013.0,STARLINK-5098,PAYLOAD,2023-09-08 13:42:06,15.0885493,0.0001094,53.2185,343.2255,78.1481,281.9634,1.615e-06,-2.62e-06,0.0,0 STARLINK-5098,1 54013U 22125BB  23251.57090503 -.00000262  00000-0  16150-5 0  9996,2 54013  53.2185 343.2255 0001094  78.1481 281.9634 15.08854930 51750,6917.835,95.437,540.457,538.943,0.0
54013.0,STARLINK-5098,PAYLOAD,2023-09-08 15:17:29,15.0885732,0.0001095,53.219,342.9281,78.1656,281.9459,2.1732e-05,5.8e-07,0.0,0 STARLINK-5098,1 54013U 22125BB  23251.63714293  .00000058  00000-0  21732-4 0  9995,2 54013  53.2190 342.9281 0001095  78.1656 281.9459 15.08857320 51814,6917.827,95.436,540.45,538.935,0.0
54013.0,STARLINK-5098,PAYLOAD,2023-09-08 18:28:15,15.0885576,0.000118,53.2174,342.3329,73.8459,286.2663,0.00014883,2.083e-05,0.0,0 STARLINK-5098,1 54013U 22125BB  23251.76962269  .00002083  00000-0  14883-3 0  9995,2 54013  53.2174 342.3329 0001180  73.8459 286.2663 15.08855760 51788,6917.832,95.437,540.514,538.881,0.0
54013.0,STARLINK-5098,PAYLOAD,2023-09-08 23:14:25,15.08829695,9.1e-06,53.2177,341.4444,149.3009,210.7988,6.4492e-05,7.39e-06,0.0,0 STARLINK-5098,1 54013U 22125BB  23251.96835178  .00000739  00000-0  64492-4 0  9993,2 54013  53.2177 341.4444 0000091 149.3009 210.7988 15.08829695 51868,6917.912,95.438,539.84,539.714,0.0
54013.0,STARLINK-5098,PAYLOAD,2023-09-09 13:32:53,15.08845797,0.0001306,53.2176,338.7642,77.6697,282.4442,0.00032288,4.855e-05,0.0,0 STARLINK-5098,1 54013U 22125BB  23252.56451296  .00004855  00000-0  32288-3 0  9995,2 54013  53.2176 338.7642 0001306  77.6697 282.4442 15.08845797 51909,6917.863,95.437,540.631,538.824,0.0
54013.0,STARLINK-5098,PAYLOAD,2023-09-10 10:12:54,15.08844182,0.0001386,53.2169,334.8996,78.7977,281.3171,0.00017407,2.484e-05,0.0,0 STARLINK-5098,1 54013U 22125BB  23253.42563265  .00002484  00000-0  17407-3 0  9993,2 54013  53.2169 334.8996 0001386  78.7977 281.3171 15.08844182 52085,6917.868,95.437,540.691,538.774,0.0
54013.0,STARLINK-5098,PAYLOAD,2023-09-10 11:48:17,15.08845402,0.0001405,53.2172,334.6024,78.5575,281.5575,0.00018542,2.665e-05,0.0,0 STARLINK-5098,1 54013U 22125BB  23253.49187224  .00002665  00000-0  18542-3 0  9999,2 54013  53.2172 334.6024 0001405  78.5575 281.5575 15.08845402 52045,6917.864,95.437,540.701,538.757,0.0
54013.0,STARLINK-5098,PAYLOAD,2023-09-11 08:28:18,15.08836791,0.000153,53.2174,330.7375,82.4122,277.7044,3.9768e-05,3.45e-06,0.0,0 STARLINK-5098,1 54013U 22125BB  23254.35299678  .00000345  00000-0  39768-4 0  9999,2 54013  53.2174 330.7375 0001530  82.4122 277.7044 15.08836791 52223,6917.89,95.438,540.814,538.697,0.0
54013.0,STARLINK-5098,PAYLOAD,2023-09-11 11:39:04,15.0884236,0.0001448,53.2178,330.1412,91.6875,268.4283,5.8846e-05,6.49e-06,0.0,0 STARLINK-5098,1 54013U 22125BB  23254.48547453  .00000649  00000-0  58846-4 0  9995,2 54013  53.2178 330.1412 0001448  91.6875 268.4283 15.08842360 52195,6917.873,95.437,540.74,538.736,0.0
54013.0,STARLINK-5098,PAYLOAD,2023-09-12 09:54:28,15.08841285,0.0001479,53.2175,325.9783,95.9272,264.1888,0.00032573,4.9e-05,0.0,0 STARLINK-5098,1 54013U 22125BB  23255.41283519  .00004900  00000-0  32573-3 0  9991,2 54013  53.2175 325.9783 0001479  95.9272 264.1888 15.08841285 52387,6917.876,95.437,540.765,538.718,0.0
54013.0,STARLINK-5098,PAYLOAD,2023-09-13 11:20:38,15.08848379,0.0001494,53.217,321.2203,95.7193,264.397,0.00017567,2.51e-05,0.0,0 STARLINK-5098,1 54013U 22125BB  23256.47266904  .00002510  00000-0  17567-3 0  9998,2 54013  53.2170 321.2203 0001494  95.7193 264.3970 15.08848379 52492,6917.855,95.437,540.753,538.686,0.0
54013.0,STARLINK-5098,PAYLOAD,2023-09-14 03:14:30,15.08829388,0.0001727,53.218,318.2474,105.6249,254.4934,-0.00011386,-2.099e-05,0.0,0 STARLINK-5098,1 54013U 22125BB  23257.13508091 -.00002099  00000-0 -11386-3 0  9995,2 54013  53.2180 318.2474 0001727 105.6249 254.4934 15.08829388 52647,6917.913,95.438,540.973,538.583,0.0
54013.0,STARLINK-5098,PAYLOAD,2023-09-14 09:36:04,15.08820164,0.0001513,53.2171,317.0549,93.4158,266.7007,-0.0002439,-4.165e-05,0.0,0 STARLINK-5098,1 54013U 22125BB  23257.40004822 -.00004165  00000-0 -24390-3 0  9993,2 54013  53.2171 317.0549 0001513  93.4158 266.7007 15.08820164 52687,6917.941,95.439,540.853,538.759,0.0
54013.0,STARLINK-5098,PAYLOAD,2023-09-14 20:43:46,15.08819845,0.0001495,53.2176,314.9748,85.7225,274.3938,-0.00011765,-2.159e-05,0.0,0 STARLINK-5098,1 54013U 22125BB  23257.86373463 -.00002159  00000-0 -11765-3 0  9996,2 54013  53.2176 314.9748 0001495  85.7225 274.3938 15.08819845 52702,6917.942,95.439,540.841,538.773,0.0
54013.0,STARLINK-5098,PAYLOAD,2023-09-15 09:26:51,15.08832419,0.0001443,53.2166,312.596,79.8624,280.2531,9.6845e-05,1.253e-05,0.0,0 STARLINK-5098,1 54013U 22125BB  23258.39365431  .00001253  00000-0  96845-4 0  9996,2 54013  53.2166 312.5960 0001443  79.8624 280.2531 15.08832419 52832,6917.904,95.438,540.767,538.77,0.0
54013.0,STARLINK-5098,PAYLOAD,2023-09-15 11:02:14,15.0883391,0.0001492,53.2171,312.299,83.8048,276.3114,0.00013142,1.804e-05,0.0,0 STARLINK-5098,1 54013U 22125BB  23258.45989408  .00001804  00000-0  13142-3 0  9999,2 54013  53.2171 312.2990 0001492  83.8048 276.3114 15.08833910 52792,6917.899,95.438,540.796,538.732,0.0
54013.0,STARLINK-5098,PAYLOAD,2023-09-16 09:17:38,15.08864271,0.0001507,53.2162,308.1364,75.5801,284.5359,0.0008359,0.00013049,0.0,0 STARLINK-5098,1 54013U 22125BB  23259.38724928  .00013049  00000-0  83590-3 0  9994,2 54013  53.2162 308.1364 0001507  75.5801 284.5359 15.08864271 52980,6917.806,95.436,540.714,538.629,0.0
54013.0,STARLINK-5098,PAYLOAD,2023-09-16 10:53:01,15.08868823,0.0001526,53.216,307.8393,75.7718,284.3444,0.0008626,0.00013478,0.0,0 STARLINK-5098,1 54013U 22125BB  23259.45348754  .00013478  00000-0  86260-3 0  9994,2 54013  53.2160 307.8393 0001526  75.7718 284.3444 15.08868823 52942,6917.792,95.436,540.713,538.602,0.0
54013.0,STARLINK-5098,PAYLOAD,2023-09-16 20:25:19,15.0886481,0.0001557,53.2158,306.0553,79.1935,280.9233,0.00044208,6.759e-05,0.0,0 STARLINK-5098,1 54013U 22125BB  23259.85092371  .00006759  00000-0  44208-3 0  9999,2 54013  53.2158 306.0553 0001557  79.1935 280.9233 15.08864810 53054,6917.805,95.436,540.747,538.592,0.0
54013.0,STARLINK-5098,PAYLOAD,2023-09-17 09:08:24,15.08861614,0.0001526,53.2156,303.6762,82.4008,277.7158,0.00067341,0.00010452,0.0,0 STARLINK-5098,1 54013U 22125BB  23260.38084145  .00010452  00000-0  67341-3 0  9997,2 54013  53.2156 303.6762 0001526  82.4008 277.7158 15.08861614 53139,6917.814,95.436,540.735,538.624,0.0
54013.0,STARLINK-5098,PAYLOAD,2023-09-17 10:43:47,15.0885815,0.000163,53.2159,303.3793,82.0436,278.0741,0.00055183,8.51e-05,0.0,0 STARLINK-5098,1 54013U 22125BB  23260.44708226  .00008510  00000-0  55183-3 0  9990,2 54013  53.2159 303.3793 0001630  82.0436 278.0741 15.08858150 53098,6917.825,95.436,540.818,538.562,0.0
54013.0,STARLINK-5098,PAYLOAD,2023-09-18 02:37:39,15.08847049,0.0001659,53.215,300.4068,81.7013,278.4168,0.00021137,3.078e-05,0.0,0 STARLINK-5098,1 54013U 22125BB  23261.10948269  .00003078  00000-0  21137-3 0  9993,2 54013  53.2150 300.4068 0001659  81.7013 278.4168 15.08847049 53249,6917.859,95.437,540.872,538.576,0.0
54013.0,STARLINK-5098,PAYLOAD,2023-09-18 08:59:11,15.08846275,0.0001575,53.2164,299.217,80.7179,279.3992,-9.2724e-05,-1.764e-05,0.0,0 STARLINK-5098,1 54013U 22125BB  23261.37444339 -.00001764  00000-0 -92724-4 0  9994,2 54013  53.2164 299.2170 0001575  80.7179 279.3992 15.08846275 53236,6917.861,95.437,540.816,538.637,0.0
